[{"OBJECT_NAME":"JINJUSAT-1B","OBJECT_ID":"2025-052A","EPOCH":"2026-03-09T15:55:38.242848","MEAN_MOTION":15.30194857,"ECCENTRICITY":0.00055504,"INCLINATION":97.4113,"RA_OF_ASC_NODE":325.4613,"ARG_OF_PERICENTER":82.193,"MEAN_ANOMALY":277.9941,"EPHEMERIS_TYPE":0,"CLASSIFICATION_TYPE":"U","NORAD_CAT_ID":63210,"ELEMENT_SET_NO":999,"REV_AT_EPOCH":5486,"BSTAR":0.00068430401,"MEAN_MOTION_DOT":0.00019955,"MEAN_MOTION_DDOT":0},{"OBJECT_NAME":"STARLINK-34202","OBJECT_ID":"2025-113E","EPOCH":"2026-03-09T06:49:14.440224","MEAN_MOTION":15.30195377,"ECCENTRICITY":0.00013302,"INCLINATION":53.1585,"RA_OF_ASC_NODE":92.9733,"ARG_OF_PERICENTER":52.114,"MEAN_ANOMALY":307.9981,"EPHEMERIS_TYPE":0,"CLASSIFICATION_TYPE":"U","NORAD_CAT_ID":64174,"ELEMENT_SET_NO":999,"REV_AT_EPOCH":4500,"BSTAR":0.00041831705,"MEAN_MOTION_DOT":0.00012049,"MEAN_MOTION_DDOT":0}]
